{
    "links": {
        "self": "http://www.neowsapp.com/rest/v1/neo/3763926?api_key=iIulBulltgU6a56xZRHN4H3l9WmuAYTsLGpBGhQ2"
    },
    "id": "3763926",
    "neo_reference_id": "3763926",
    "name": "(2016 WF)",
    "designation": "2016 WF",
    "nasa_jpl_url": "http://ssd.jpl.nasa.gov/sbdb.cgi?sstr=3763926",
    "absolute_magnitude_h": 27.0,
    "estimated_diameter": {
        "kilometers": {
            "estimated_diameter_min": 0.0105816886,
            "estimated_diameter_max": 0.023661375
        },
        "meters": {
            "estimated_diameter_min": 10.5816885933,
            "estimated_diameter_max": 23.6613750114
        },
        "miles": {
            "estimated_diameter_min": 0.0065751544,
            "estimated_diameter_max": 0.0147024923
        },
        "feet": {
            "estimated_diameter_min": 34.7168272045,
            "estimated_diameter_max": 77.6291855923
        }
    },
    "is_potentially_hazardous_asteroid": false,
    "close_approach_data": [
        {
            "close_approach_date": "1936-01-01",
            "close_approach_date_full": "1936-Jan-01 23:24",
            "epoch_date_close_approach": -1072917360000,
            "relative_velocity": {
                "kilometers_per_second": "17.4625916837",
                "kilometers_per_hour": "62865.3300614975",
                "miles_per_hour": "39062.0713373788"
            },
            "miss_distance": {
                "astronomical": "0.3699301676",
                "lunar": "143.9028351964",
                "kilometers": "55340765.121703012",
                "miles": "34387156.8929730856"
            },
            "orbiting_body": "Earth"
        },
        {
            "close_approach_date": "2009-04-09",
            "close_approach_date_full": "2009-Apr-09 14:57",
            "epoch_date_close_approach": 1239289020000,
            "relative_velocity": {
                "kilometers_per_second": "10.0503095253",
                "kilometers_per_hour": "36181.1142910066",
                "miles_per_hour": "22481.5373770979"
            },
            "miss_distance": {
                "astronomical": "0.0837830864",
                "lunar": "32.5916206096",
                "kilometers": "12533771.267465968",
                "miles": "7788124.3254796384"
            },
            "orbiting_body": "Mars"
        },
        {
            "close_approach_date": "2016-11-16",
            "close_approach_date_full": "2016-Nov-16 22:49",
            "epoch_date_close_approach": 1479336540000,
            "relative_velocity": {
                "kilometers_per_second": "5.8928867715",
                "kilometers_per_hour": "21214.3923772994",
                "miles_per_hour": "13181.7984191058"
            },
            "miss_distance": {
                "astronomical": "0.0146634663",
                "lunar": "5.7040883907",
                "kilometers": "2193623.325296781",
                "miles": "1363054.3286703378"
            },
            "orbiting_body": "Earth"
        },
        {
            "close_approach_date": "2021-09-12",
            "close_approach_date_full": "2021-Sep-12 16:25",
            "epoch_date_close_approach": 1631463900000,
            "relative_velocity": {
                "kilometers_per_second": "19.8515943102",
                "kilometers_per_hour": "71465.739516697",
                "miles_per_hour": "44406.0313124721"
            },
            "miss_distance": {
                "astronomical": "0.4552481634",
                "lunar": "177.0915355626",
                "kilometers": "68104155.566051958",
                "miles": "42317959.9588667004"
            },
            "orbiting_body": "Earth"
        }
    ],
    "orbital_data": {
        "orbit_id": "6",
        "orbit_determination_date": "2017-04-06 08:22:10",
        "first_observation_date": "2016-11-18",
        "last_observation_date": "2016-11-25",
        "data_arc_in_days": 7,
        "observations_used": 35,
        "orbit_uncertainty": "7",
        "minimum_orbit_intersection": ".013288",
        "jupiter_tisserand_invariant": "3.914",
        "epoch_osculation": "2459000.5",
        "eccentricity": ".4501255401382792",
        "semi_major_axis": "1.820741552299197",
        "inclination": "1.352495566655276",
        "ascending_node_longitude": "244.1001020133689",
        "orbital_period": "897.3686275642777",
        "perihelion_distance": "1.001179277618312",
        "perihelion_argument": "166.7862310048667",
        "aphelion_distance": "2.640303826980082",
        "perihelion_time": "2458604.363160579348",
        "mean_anomaly": "158.9193758405818",
        "mean_motion": ".4011729282058208",
        "equinox": "J2000",
        "orbit_class": {
            "orbit_class_type": "APO",
            "orbit_class_description": "Near-Earth asteroid orbits which cross the Earth’s orbit similar to that of 1862 Apollo",
            "orbit_class_range": "a (semi-major axis) > 1.0 AU; q (perihelion) < 1.017 AU"
        }
    },
    "is_sentry_object": false
}